TIANMU-1 21             
1 58662U 23208C   24020.84666422  .00008383  00000+0  46043-3 0  9999
2 58662  97.3966 137.3089 0010392 168.7284 191.4183 15.14315932  3724
TIANMU-1 22             
1 58663U 23208D   24020.84143572  .00007861  00000+0  42822-3 0  9997
2 58663  97.3980 137.3205 0010761 177.4794 182.6495 15.14629846  3724
TIANMU-1 15             
1 58700U 24004A   24020.78534727  .00007909  00000+0  44092-3 0  9997
2 58700  97.4567 204.8474 0010725 199.5981 160.4840 15.13802726  2310
TIANMU-1 16             
1 58701U 24004B   24020.12041429  .00007219  00000+0  39764-3 0  9992
2 58701  97.4494 204.1903 0010924 208.5387 151.5248 15.14265106  2210
TIANMU-1 17             
1 58702U 24004C   24020.77973829  .00007913  00000+0  43356-3 0  9995
2 58702  97.4539 204.8487 0010208 208.2027 151.8653 15.14430044  2306
TIANMU-1 18             
1 58703U 24004D   24020.84184143  .00007586  00000+0  41116-3 0  9995
2 58703  97.4555 204.9217 0010798 217.7126 142.3350 15.14824359  2312
